EUTELSAT 115 WEST B     
1 40425U 15010B   25202.96022067 -.00000029  00000+0  00000+0 0  9995
2 40425   0.0079 127.9377 0000259   3.1427  39.6454  1.00269268 38086
EUTELSAT 8 WEST B       
1 40875U 15039B   25202.89350156 -.00000070  00000+0  00000+0 0  9996
2 40875   0.0649  16.9596 0003729 100.8536 135.7445  1.00272199 36341
EUTELSAT 9B             
1 41310U 16005A   25202.55642564  .00000058  00000+0  00000+0 0  9990
2 41310   0.0493  70.8092 0000994  61.3148  16.7247  1.00272307 34790
EUTELSAT 65 WEST A      
1 41382U 16014A   25202.82731478 -.00000280  00000+0  00000+0 0  9990
2 41382   0.0585 329.4114 0002205 153.1764  49.8660  1.00272120 34227
EUTELSAT 117 WEST B     
1 41589U 16038B   25202.67432593 -.00000014  00000+0  00000+0 0  9999
2 41589   0.0109 199.6218 0000400 221.3392   4.4641  1.00268334 33340
EUTELSAT 172B           
1 42741U 17029B   25202.80304800 -.00000010  00000+0  00000+0 0  9991
2 42741   0.0207  87.9589 0000225 176.6616 136.2887  1.00271072 30410
EUTELSAT 7C             
1 44334U 19034B   25202.55616564  .00000045  00000+0  00000+0 0  9991
2 44334   0.0724 192.5899 0003104 274.3830  39.7905  1.00270327  3526
EUTELSAT 5 WEST B       
1 44624U 19067A   25202.89350156 -.00000046  00000+0  00000+0 0  9990
2 44624   0.0837 318.3392 0002939 165.8163 132.3866  1.00272086 21123
